NORAD_CAT_ID,OBJECT_NAME,OBJECT_TYPE,EPOCH,MEAN_MOTION,ECCENTRICITY,INCLINATION,RA_OF_ASC_NODE,ARG_OF_PERICENTER,MEAN_ANOMALY,BSTAR,MEAN_MOTION_DOT,MEAN_MOTION_DDOT,TLE_LINE0,TLE_LINE1,TLE_LINE2,SEMIMAJOR_AXIS,PERIOD,APOGEE,PERIGEE,DECAYED
52841.0,STARLINK-4065,PAYLOAD,2023-02-02 09:55:56,15.08839689,0.0001261,53.2159,72.6253,97.671,262.4425,6.7021e-06,-1.81e-06,0.0,0 STARLINK-4065,1 52841U 22062M   23033.41384534 -.00000181  00000-0  67021-5 0  9997,2 52841  53.2159  72.6253 0001261  97.6710 262.4425 15.08839689 35002,6917.881,95.438,540.619,538.874,0.0
52841.0,STARLINK-4065,PAYLOAD,2023-02-03 09:46:43,15.08842473,0.0001285,53.2156,68.1653,94.434,265.6799,0.00011839,1.597e-05,0.0,0 STARLINK-4065,1 52841U 22062M   23034.40744410  .00001597  00000-0  11839-3 0  9995,2 52841  53.2156  68.1653 0001285  94.4340 265.6799 15.08842473 35153,6917.873,95.437,540.627,538.849,0.0
52841.0,STARLINK-4065,PAYLOAD,2023-02-04 08:02:07,15.08841392,0.0001327,53.2151,64.0017,96.7267,263.3877,0.00018687,2.687e-05,0.0,0 STARLINK-4065,1 52841U 22062M   23035.33480775  .00002687  00000-0  18687-3 0  9998,2 52841  53.2151  64.0017 0001327  96.7267 263.3877 15.08841392 35787,6917.876,95.437,540.659,538.823,0.0
52841.0,STARLINK-4065,PAYLOAD,2023-02-04 19:09:49,15.08842961,0.0001445,53.2153,61.9215,80.1898,279.9258,0.00017246,2.458e-05,0.0,0 STARLINK-4065,1 52841U 22062M   23035.79848867  .00002458  00000-0  17246-3 0  9994,2 52841  53.2153  61.9215 0001445  80.1898 279.9258 15.08842961 35366,6917.871,95.437,540.736,538.737,0.0
52841.0,STARLINK-4065,PAYLOAD,2023-02-05 11:03:40,15.08845165,0.000136,53.2136,58.9453,101.7578,258.3567,9.618e-05,1.243e-05,0.0,0 STARLINK-4065,1 52841U 22062M   23036.46088605  .00001243  00000-0  96180-4 0  9991,2 52841  53.2136  58.9453 0001360 101.7578 258.3567 15.08845165 35956,6917.865,95.437,540.67,538.789,0.0
52841.0,STARLINK-4065,PAYLOAD,2023-02-05 19:00:36,15.08839894,0.0001209,53.2131,57.458,98.6593,261.4536,3.516e-05,2.72e-06,0.0,0 STARLINK-4065,1 52841U 22062M   23036.79208865  .00000272  00000-0  35160-4 0  9991,2 52841  53.2131  57.4580 0001209  98.6593 261.4536 15.08839894 35514,6917.881,95.438,540.582,538.909,0.0
52841.0,STARLINK-4065,PAYLOAD,2023-02-06 04:32:55,15.08842258,0.0001244,53.213,55.6737,89.0185,271.0949,9.4461e-05,1.216e-05,0.0,0 STARLINK-4065,1 52841U 22062M   23037.18952887  .00001216  00000-0  94461-4 0  9993,2 52841  53.2130  55.6737 0001244  89.0185 271.0949 15.08842258 36061,6917.873,95.437,540.599,538.878,0.0
52841.0,STARLINK-4065,PAYLOAD,2023-02-06 10:54:27,15.08846264,0.0001226,53.2141,54.4842,92.0049,268.1083,0.00011447,1.535e-05,0.0,0 STARLINK-4065,1 52841U 22062M   23037.45448500  .00001535  00000-0  11447-3 0  9991,2 52841  53.2141  54.4842 0001226  92.0049 268.1083 15.08846264 35617,6917.861,95.437,540.574,538.878,0.0
52841.0,STARLINK-4065,PAYLOAD,2023-02-07 05:59:04,15.08849905,0.0001255,53.2133,50.9153,96.5107,263.6028,0.0002224,3.254e-05,0.0,0 STARLINK-4065,1 52841U 22062M   23038.24936314  .00003254  00000-0  22240-3 0  9997,2 52841  53.2133  50.9153 0001255  96.5107 263.6028 15.08849905 36222,6917.85,95.437,540.583,538.847,0.0
52841.0,STARLINK-4065,PAYLOAD,2023-02-07 10:45:13,15.088594,0.0001228,53.2137,50.0237,92.8001,267.3132,0.00032917,4.957e-05,0.0,0 STARLINK-4065,1 52841U 22062M   23038.44807769  .00004957  00000-0  32917-3 0  9993,2 52841  53.2137  50.0237 0001228  92.8001 267.3132 15.08859400 35768,6917.821,95.436,540.536,538.837,0.0
52841.0,STARLINK-4065,PAYLOAD,2023-02-08 05:49:51,15.08849633,0.0001529,53.2144,46.4528,117.4081,242.7067,0.00013815,1.912e-05,0.0,0 STARLINK-4065,1 52841U 22062M   23039.24295888  .00001912  00000-0  13815-3 0  9999,2 52841  53.2144  46.4528 0001529 117.4081 242.7067 15.08849633 36373,6917.851,95.437,540.774,538.658,0.0
52841.0,STARLINK-4065,PAYLOAD,2023-02-08 10:36:00,15.08861393,0.0001277,53.2145,45.5623,107.1898,252.9234,0.00051236,7.88e-05,0.0,0 STARLINK-4065,1 52841U 22062M   23039.44167531  .00007880  00000-0  51236-3 0  9993,2 52841  53.2145  45.5623 0001277 107.1898 252.9234 15.08861393 35917,6917.815,95.436,540.563,538.797,0.0
52841.0,STARLINK-4065,PAYLOAD,2023-02-09 07:16:02,15.0883486,0.0001158,53.2146,41.6973,96.622,263.4904,0.00031017,4.651e-05,0.0,0 STARLINK-4065,1 52841U 22062M   23040.30280736  .00004651  00000-0  31017-3 0  9991,2 52841  53.2146  41.6973 0001158  96.6220 263.4904 15.08834860 36531,6917.896,95.438,540.562,538.96,0.0
52841.0,STARLINK-4065,PAYLOAD,2023-02-09 10:26:48,15.08840431,0.0001243,53.2148,41.1022,94.984,265.1294,0.00083559,0.00013036,0.0,0 STARLINK-4065,1 52841U 22062M   23040.43528852  .00013036  00000-0  83559-3 0  9994,2 52841  53.2148  41.1022 0001243  94.9840 265.1294 15.08840431 36067,6917.879,95.438,540.604,538.884,0.0
52841.0,STARLINK-4065,PAYLOAD,2023-02-09 16:48:22,15.08822462,0.0001569,53.2156,39.9086,92.0074,268.1097,0.00045338,6.931e-05,0.0,0 STARLINK-4065,1 52841U 22062M   23040.70025520  .00006931  00000-0  45338-3 0  9997,2 52841  53.2156  39.9086 0001569  92.0074 268.1097 15.08822462 36596,6917.934,95.439,540.884,538.714,0.0
52841.0,STARLINK-4065,PAYLOAD,2023-02-10 00:45:17,15.08827095,0.0001215,53.2155,38.4257,104.329,255.7838,0.00088231,0.00013777,0.0,0 STARLINK-4065,1 52841U 22062M   23041.03145662  .00013777  00000-0  88231-3 0  9999,2 52841  53.2155  38.4257 0001215 104.3290 255.7838 15.08827095 36158,6917.92,95.438,540.625,538.944,0.0
52841.0,STARLINK-4065,PAYLOAD,2023-02-10 07:06:50,15.08852559,0.0001314,53.2148,37.237,100.476,259.6381,0.0019076,0.00030212,0.0,0 STARLINK-4065,1 52841U 22062M   23041.29641524  .00030212  00000-0  19076-2 0  9998,2 52841  53.2148  37.2370 0001314 100.4760 259.6381 15.08852559 36689,6917.842,95.437,540.616,538.798,0.0
52841.0,STARLINK-4065,PAYLOAD,2023-02-11 05:22:13,15.0886942,0.0001356,53.2149,33.0737,91.6156,268.4991,0.001638,0.00025898,0.0,0 STARLINK-4065,1 52841U 22062M   23042.22377091  .00025898  00000-0  16380-2 0  9996,2 52841  53.2149  33.0737 0001356  91.6156 268.4991 15.08869420 36823,6917.79,95.436,540.594,538.717,0.0
52841.0,STARLINK-4065,PAYLOAD,2023-02-11 16:29:56,15.08849688,0.0001796,53.2148,30.9921,81.3726,278.7469,0.0010694,0.00016777,0.0,0 STARLINK-4065,1 52841U 22062M   23042.68745408  .00016777  00000-0  10694-2 0  9995,2 52841  53.2148  30.9921 0001796  81.3726 278.7469 15.08849688 36895,6917.851,95.437,540.958,538.473,0.0
52841.0,STARLINK-4065,PAYLOAD,2023-02-12 05:13:01,15.0883025,0.0001099,53.2158,28.6132,86.961,273.1508,0.0017981,0.00028437,0.0,0 STARLINK-4065,1 52841U 22062M   23043.21737958  .00028437  00000-0  17981-2 0  9998,2 52841  53.2158  28.6132 0001099  86.9610 273.1508 15.08830250 36970,6917.91,95.438,540.535,539.015,0.0
52841.0,STARLINK-4065,PAYLOAD,2023-02-12 08:23:47,15.08840714,0.0001678,53.2145,28.018,83.0399,277.0784,0.0020602,0.00032653,0.0,0 STARLINK-4065,1 52841U 22062M   23043.34986003  .00032653  00000-0  20602-2 0  9998,2 52841  53.2145  28.0180 0001678  83.0399 277.0784 15.08840714 36502,6917.878,95.438,540.904,538.582,0.0
52841.0,STARLINK-4065,PAYLOAD,2023-02-13 05:03:48,15.08871884,0.0001265,53.2157,24.1525,92.4925,267.6212,0.0019653,0.00031156,0.0,0 STARLINK-4065,1 52841U 22062M   23044.21097426  .00031156  00000-0  19653-2 0  9998,2 52841  53.2157  24.1525 0001265  92.4925 267.6212 15.08871884 37128,6917.783,95.436,540.523,538.773,0.0
52841.0,STARLINK-4065,PAYLOAD,2023-02-13 08:14:34,15.08874313,0.0001561,53.2147,23.5575,85.094,275.0231,0.0014249,0.00022483,0.0,0 STARLINK-4065,1 52841U 22062M   23044.34345131  .00022483  00000-0  14249-2 0  9990,2 52841  53.2147  23.5575 0001561  85.0940 275.0231 15.08874313 36650,6917.776,95.435,540.72,538.561,0.0
52841.0,STARLINK-4065,PAYLOAD,2023-02-13 22:33:02,15.08843371,0.0002013,53.2144,20.8785,111.1503,248.9704,0.00089216,0.00013941,0.0,0 STARLINK-4065,1 52841U 22062M   23044.93961732  .00013941  00000-0  89216-3 0  9992,2 52841  53.2144  20.8785 0002013 111.1503 248.9704 15.08843371 37238,6917.87,95.437,541.128,538.343,0.0
52841.0,STARLINK-4065,PAYLOAD,2023-02-14 08:05:21,15.08850122,0.0001485,53.2162,19.0974,91.2263,268.89,0.00083562,0.0001304,0.0,0 STARLINK-4065,1 52841U 22062M   23045.33705770  .00013040  00000-0  83562-3 0  9993,2 52841  53.2162  19.0974 0001485  91.2263 268.8900 15.08850122 36804,6917.849,95.437,540.742,538.687,0.0
52841.0,STARLINK-4065,PAYLOAD,2023-02-15 04:45:23,15.08844315,0.0001198,53.2155,15.2315,71.3223,288.7899,0.0012267,0.00019291,0.0,0 STARLINK-4065,1 52841U 22062M   23046.19818522  .00019291  00000-0  12267-2 0  9995,2 52841  53.2155  15.2315 0001198  71.3223 288.7899 15.08844315 37423,6917.867,95.437,540.561,538.903,0.0
52841.0,STARLINK-4065,PAYLOAD,2023-02-15 20:39:14,15.08849616,0.0001107,53.2154,12.2583,75.4247,284.6867,0.00046956,7.195e-05,0.0,0 STARLINK-4065,1 52841U 22062M   23046.86058170  .00007195  00000-0  46956-3 0  9997,2 52841  53.2154  12.2583 0001107  75.4247 284.6867 15.08849616 37527,6917.851,95.437,540.482,538.95,0.0
52841.0,STARLINK-4065,PAYLOAD,2023-02-16 07:46:54,15.08880763,0.0001009,53.2159,10.1732,92.3668,267.744,0.0012738,0.00020065,0.0,0 STARLINK-4065,1 52841U 22062M   23047.32424563  .00020065  00000-0  12738-2 0  9993,2 52841  53.2159  10.1732 0001009  92.3668 267.7440 15.08880763 37595,6917.756,95.435,540.319,538.923,0.0
52841.0,STARLINK-4065,PAYLOAD,2023-02-17 06:02:20,15.08822215,0.0001275,53.2158,6.0134,60.8467,299.2653,-0.00033049,-5.541e-05,0.0,0 STARLINK-4065,1 52841U 22062M   23048.25162792 -.00005541  00000-0 -33049-3 0  9992,2 52841  53.2158   6.0134 0001275  60.8467 299.2653 15.08822215 37736,6917.935,95.439,540.682,538.918,0.0
52841.0,STARLINK-4065,PAYLOAD,2023-02-17 13:59:16,15.0881857,0.0001184,53.2156,4.5232,70.397,289.715,-0.00022587,-3.879e-05,0.0,0 STARLINK-4065,1 52841U 22062M   23048.58283313 -.00003879  00000-0 -22587-3 0  9998,2 52841  53.2156   4.5232 0001184  70.3970 289.7150 15.08818570 37296,6917.946,95.439,540.63,538.992,0.0
